STARLINK-5903           
1 55996U 23042L   26063.05504567  .00000252  00000+0  33700-4 0  9999
2 55996  43.0025  86.6535 0001518 272.2959  87.7709 15.02532438162060
STARLINK-5902           
1 55998U 23042N   26063.11706348  .00003648  00000+0  28490-3 0  9990
2 55998  43.0074  86.2596 0002005 268.8379  91.2233 15.02550102162079
STARLINK-5901           
1 55999U 23042P   26063.12485406  .00000413  00000+0  45654-4 0  9990
2 55999  43.0033  86.3173 0001298 269.9423  90.1270 15.02538418162077
STARLINK-5910           
1 56000U 23042Q   26063.10487407 -.00000099  00000+0  77099-5 0  9995
2 56000  43.0035  86.1641 0001256 268.1466  91.9232 15.02533164162073
STARLINK-5944           
1 56001U 23042R   26063.04727270  .00000552  00000+0  55905-4 0  9998
2 56001  43.0033  86.5900 0001043 269.5510  90.5213 15.02535896162060
STARLINK-5799           
1 56002U 23042S   26063.10820197  .00001544  00000+0  12926-3 0  9995
2 56002  43.0032  86.1894 0001304 275.4774  84.5920 15.02552993162072
STARLINK-5789           
1 56003U 23042T   26063.12042245 -.00000737  00000+0 -39518-4 0  9990
2 56003  43.0006  86.2799 0000884 243.9146 116.1605 15.02524183162076
STARLINK-5787           
1 56004U 23042U   26063.10155717  .00000792  00000+0  73671-4 0  9995
2 56004  43.0032  86.1388 0001412 267.0862  92.9819 15.02535984162078
STARLINK-5801           
1 56005U 23042V   26063.04505201  .00001128  00000+0  98578-4 0  9993
2 56005  43.0042  86.5799 0001425 283.4288  76.6396 15.02531574162067
STARLINK-5794           
1 56006U 23042W   26063.42949902 -.00000534  00000+0 -24509-4 0  9991
2 56006  43.0023  84.2994 0000845 264.6852  95.3894 15.02529985162123
STARLINK-5806           
1 56007U 23042X   26063.43283558  .00003117  00000+0  24577-3 0  9993
2 56007  43.0018  84.3241 0001043 272.6938  87.3784 15.02529542162127
STARLINK-5803           
1 56008U 23042Y   26063.08278681  .00000950  00000+0  85421-4 0  9994
2 56008  43.0038  86.8430 0001821 265.7491  94.3144 15.02535199162053
STARLINK-5964           
1 56009U 23042Z   26063.09821137  .00000464  00000+0  49444-4 0  9991
2 56009  43.0015  86.1134 0001325 262.0616  98.0076 15.02534360162077
STARLINK-5968           
1 56010U 23042AA  26063.02727530  .00001592  00000+0  13285-3 0  9994
2 56010  43.0050  86.4367 0001793 262.7865  97.2773 15.02552826162062
STARLINK-5936           
1 56011U 23042AB  26063.02544777 -.00000194  00000+0  72047-6 0  9997
2 56011  43.0028  74.2773 0001155 262.9006  97.1705 15.02537808162208
STARLINK-5940           
1 56012U 23042AC  26063.36302015  .00041990  00000+0  30759-2 0  9990
2 56012  43.0039  72.5099 0001488 245.4112 114.6576 15.02889072162255
STARLINK-5941           
1 56013U 23042AD  26063.09044374 -.00000095  00000+0  80136-5 0  9991
2 56013  43.0032  86.0512 0001269 264.3277  95.7421 15.02534136162074
