[{"OBJECT_NAME":"STARLINK-5903","OBJECT_ID":"2023-042L","EPOCH":"2026-03-04T01:19:15.945888","MEAN_MOTION":15.02532438,"ECCENTRICITY":0.0001518,"INCLINATION":43.0025,"RA_OF_ASC_NODE":86.6535,"ARG_OF_PERICENTER":272.2959,"MEAN_ANOMALY":87.7709,"EPHEMERIS_TYPE":0,"CLASSIFICATION_TYPE":"U","NORAD_CAT_ID":55996,"ELEMENT_SET_NO":999,"REV_AT_EPOCH":16206,"BSTAR":3.37e-5,"MEAN_MOTION_DOT":2.52e-6,"MEAN_MOTION_DDOT":0},{"OBJECT_NAME":"STARLINK-5902","OBJECT_ID":"2023-042N","EPOCH":"2026-03-04T02:48:34.284672","MEAN_MOTION":15.02550102,"ECCENTRICITY":0.0002005,"INCLINATION":43.0074,"RA_OF_ASC_NODE":86.2596,"ARG_OF_PERICENTER":268.8379,"MEAN_ANOMALY":91.2233,"EPHEMERIS_TYPE":0,"CLASSIFICATION_TYPE":"U","NORAD_CAT_ID":55998,"ELEMENT_SET_NO":999,"REV_AT_EPOCH":16207,"BSTAR":0.0002849,"MEAN_MOTION_DOT":3.648e-5,"MEAN_MOTION_DDOT":0},{"OBJECT_NAME":"STARLINK-5901","OBJECT_ID":"2023-042P","EPOCH":"2026-03-04T02:59:47.390784","MEAN_MOTION":15.02538418,"ECCENTRICITY":0.0001298,"INCLINATION":43.0033,"RA_OF_ASC_NODE":86.3173,"ARG_OF_PERICENTER":269.9423,"MEAN_ANOMALY":90.127,"EPHEMERIS_TYPE":0,"CLASSIFICATION_TYPE":"U","NORAD_CAT_ID":55999,"ELEMENT_SET_NO":999,"REV_AT_EPOCH":16207,"BSTAR":4.5654e-5,"MEAN_MOTION_DOT":4.13e-6,"MEAN_MOTION_DDOT":0},{"OBJECT_NAME":"STARLINK-5910","OBJECT_ID":"2023-042Q","EPOCH":"2026-03-04T02:31:01.119648","MEAN_MOTION":15.02533164,"ECCENTRICITY":0.0001256,"INCLINATION":43.0035,"RA_OF_ASC_NODE":86.1641,"ARG_OF_PERICENTER":268.1466,"MEAN_ANOMALY":91.9232,"EPHEMERIS_TYPE":0,"CLASSIFICATION_TYPE":"U","NORAD_CAT_ID":56000,"ELEMENT_SET_NO":999,"REV_AT_EPOCH":16207,"BSTAR":7.7099e-6,"MEAN_MOTION_DOT":-9.9e-7,"MEAN_MOTION_DDOT":0},{"OBJECT_NAME":"STARLINK-5944","OBJECT_ID":"2023-042R","EPOCH":"2026-03-04T01:08:04.361280","MEAN_MOTION":15.02535896,"ECCENTRICITY":0.0001043,"INCLINATION":43.0033,"RA_OF_ASC_NODE":86.59,"ARG_OF_PERICENTER":269.551,"MEAN_ANOMALY":90.5213,"EPHEMERIS_TYPE":0,"CLASSIFICATION_TYPE":"U","NORAD_CAT_ID":56001,"ELEMENT_SET_NO":999,"REV_AT_EPOCH":16206,"BSTAR":5.5905e-5,"MEAN_MOTION_DOT":5.52e-6,"MEAN_MOTION_DDOT":0},{"OBJECT_NAME":"STARLINK-5799","OBJECT_ID":"2023-042S","EPOCH":"2026-03-04T02:35:48.650208","MEAN_MOTION":15.02552993,"ECCENTRICITY":0.0001304,"INCLINATION":43.0032,"RA_OF_ASC_NODE":86.1894,"ARG_OF_PERICENTER":275.4774,"MEAN_ANOMALY":84.592,"EPHEMERIS_TYPE":0,"CLASSIFICATION_TYPE":"U","NORAD_CAT_ID":56002,"ELEMENT_SET_NO":999,"REV_AT_EPOCH":16207,"BSTAR":0.00012926,"MEAN_MOTION_DOT":1.544e-5,"MEAN_MOTION_DDOT":0},{"OBJECT_NAME":"STARLINK-5789","OBJECT_ID":"2023-042T","EPOCH":"2026-03-04T02:53:24.499680","MEAN_MOTION":15.02524183,"ECCENTRICITY":8.84e-5,"INCLINATION":43.0006,"RA_OF_ASC_NODE":86.2799,"ARG_OF_PERICENTER":243.9146,"MEAN_ANOMALY":116.1605,"EPHEMERIS_TYPE":0,"CLASSIFICATION_TYPE":"U","NORAD_CAT_ID":56003,"ELEMENT_SET_NO":999,"REV_AT_EPOCH":16207,"BSTAR":-3.9518e-5,"MEAN_MOTION_DOT":-7.37e-6,"MEAN_MOTION_DDOT":0},{"OBJECT_NAME":"STARLINK-5787","OBJECT_ID":"2023-042U","EPOCH":"2026-03-04T02:26:14.539488","MEAN_MOTION":15.02535984,"ECCENTRICITY":0.0001412,"INCLINATION":43.0032,"RA_OF_ASC_NODE":86.1388,"ARG_OF_PERICENTER":267.0862,"MEAN_ANOMALY":92.9819,"EPHEMERIS_TYPE":0,"CLASSIFICATION_TYPE":"U","NORAD_CAT_ID":56004,"ELEMENT_SET_NO":999,"REV_AT_EPOCH":16207,"BSTAR":7.3671e-5,"MEAN_MOTION_DOT":7.92e-6,"MEAN_MOTION_DDOT":0},{"OBJECT_NAME":"STARLINK-5801","OBJECT_ID":"2023-042V","EPOCH":"2026-03-04T01:04:52.493664","MEAN_MOTION":15.02531574,"ECCENTRICITY":0.0001425,"INCLINATION":43.0042,"RA_OF_ASC_NODE":86.5799,"ARG_OF_PERICENTER":283.4288,"MEAN_ANOMALY":76.6396,"EPHEMERIS_TYPE":0,"CLASSIFICATION_TYPE":"U","NORAD_CAT_ID":56005,"ELEMENT_SET_NO":999,"REV_AT_EPOCH":16206,"BSTAR":9.8578e-5,"MEAN_MOTION_DOT":1.128e-5,"MEAN_MOTION_DDOT":0},{"OBJECT_NAME":"STARLINK-5794","OBJECT_ID":"2023-042W","EPOCH":"2026-03-04T10:18:28.715328","MEAN_MOTION":15.02529985,"ECCENTRICITY":8.45e-5,"INCLINATION":43.0023,"RA_OF_ASC_NODE":84.2994,"ARG_OF_PERICENTER":264.6852,"MEAN_ANOMALY":95.3894,"EPHEMERIS_TYPE":0,"CLASSIFICATION_TYPE":"U","NORAD_CAT_ID":56006,"ELEMENT_SET_NO":999,"REV_AT_EPOCH":16212,"BSTAR":-2.4509e-5,"MEAN_MOTION_DOT":-5.34e-6,"MEAN_MOTION_DDOT":0},{"OBJECT_NAME":"STARLINK-5806","OBJECT_ID":"2023-042X","EPOCH":"2026-03-04T10:23:16.994112","MEAN_MOTION":15.02529542,"ECCENTRICITY":0.0001043,"INCLINATION":43.0018,"RA_OF_ASC_NODE":84.3241,"ARG_OF_PERICENTER":272.6938,"MEAN_ANOMALY":87.3784,"EPHEMERIS_TYPE":0,"CLASSIFICATION_TYPE":"U","NORAD_CAT_ID":56007,"ELEMENT_SET_NO":999,"REV_AT_EPOCH":16212,"BSTAR":0.00024577,"MEAN_MOTION_DOT":3.117e-5,"MEAN_MOTION_DDOT":0},{"OBJECT_NAME":"STARLINK-5803","OBJECT_ID":"2023-042Y","EPOCH":"2026-03-04T01:59:12.780384","MEAN_MOTION":15.02535199,"ECCENTRICITY":0.0001821,"INCLINATION":43.0038,"RA_OF_ASC_NODE":86.843,"ARG_OF_PERICENTER":265.7491,"MEAN_ANOMALY":94.3144,"EPHEMERIS_TYPE":0,"CLASSIFICATION_TYPE":"U","NORAD_CAT_ID":56008,"ELEMENT_SET_NO":999,"REV_AT_EPOCH":16205,"BSTAR":8.5421e-5,"MEAN_MOTION_DOT":9.5e-6,"MEAN_MOTION_DDOT":0},{"OBJECT_NAME":"STARLINK-5964","OBJECT_ID":"2023-042Z","EPOCH":"2026-03-04T02:21:25.462368","MEAN_MOTION":15.0253436,"ECCENTRICITY":0.0001325,"INCLINATION":43.0015,"RA_OF_ASC_NODE":86.1134,"ARG_OF_PERICENTER":262.0616,"MEAN_ANOMALY":98.0076,"EPHEMERIS_TYPE":0,"CLASSIFICATION_TYPE":"U","NORAD_CAT_ID":56009,"ELEMENT_SET_NO":999,"REV_AT_EPOCH":16207,"BSTAR":4.9444e-5,"MEAN_MOTION_DOT":4.64e-6,"MEAN_MOTION_DDOT":0},{"OBJECT_NAME":"STARLINK-5968","OBJECT_ID":"2023-042AA","EPOCH":"2026-03-04T00:39:16.585920","MEAN_MOTION":15.02552826,"ECCENTRICITY":0.0001793,"INCLINATION":43.005,"RA_OF_ASC_NODE":86.4367,"ARG_OF_PERICENTER":262.7865,"MEAN_ANOMALY":97.2773,"EPHEMERIS_TYPE":0,"CLASSIFICATION_TYPE":"U","NORAD_CAT_ID":56010,"ELEMENT_SET_NO":999,"REV_AT_EPOCH":16206,"BSTAR":0.00013285,"MEAN_MOTION_DOT":1.592e-5,"MEAN_MOTION_DDOT":0},{"OBJECT_NAME":"STARLINK-5936","OBJECT_ID":"2023-042AB","EPOCH":"2026-03-04T00:36:38.687328","MEAN_MOTION":15.02537808,"ECCENTRICITY":0.0001155,"INCLINATION":43.0028,"RA_OF_ASC_NODE":74.2773,"ARG_OF_PERICENTER":262.9006,"MEAN_ANOMALY":97.1705,"EPHEMERIS_TYPE":0,"CLASSIFICATION_TYPE":"U","NORAD_CAT_ID":56011,"ELEMENT_SET_NO":999,"REV_AT_EPOCH":16220,"BSTAR":7.2047e-7,"MEAN_MOTION_DOT":-1.94e-6,"MEAN_MOTION_DDOT":0},{"OBJECT_NAME":"STARLINK-5940","OBJECT_ID":"2023-042AC","EPOCH":"2026-03-04T08:42:44.940960","MEAN_MOTION":15.02889072,"ECCENTRICITY":0.0001488,"INCLINATION":43.0039,"RA_OF_ASC_NODE":72.5099,"ARG_OF_PERICENTER":245.4112,"MEAN_ANOMALY":114.6576,"EPHEMERIS_TYPE":0,"CLASSIFICATION_TYPE":"U","NORAD_CAT_ID":56012,"ELEMENT_SET_NO":999,"REV_AT_EPOCH":16225,"BSTAR":0.0030759,"MEAN_MOTION_DOT":0.0004199,"MEAN_MOTION_DDOT":0},{"OBJECT_NAME":"STARLINK-5941","OBJECT_ID":"2023-042AD","EPOCH":"2026-03-04T02:10:14.339136","MEAN_MOTION":15.02534136,"ECCENTRICITY":0.0001269,"INCLINATION":43.0032,"RA_OF_ASC_NODE":86.0512,"ARG_OF_PERICENTER":264.3277,"MEAN_ANOMALY":95.7421,"EPHEMERIS_TYPE":0,"CLASSIFICATION_TYPE":"U","NORAD_CAT_ID":56013,"ELEMENT_SET_NO":999,"REV_AT_EPOCH":16207,"BSTAR":8.0136e-6,"MEAN_MOTION_DOT":-9.5e-7,"MEAN_MOTION_DDOT":0}]
